{
    "links": {
        "self": "http://www.neowsapp.com/rest/v1/neo/3467187?api_key=iIulBulltgU6a56xZRHN4H3l9WmuAYTsLGpBGhQ2"
    },
    "id": "3467187",
    "neo_reference_id": "3467187",
    "name": "(2009 SN)",
    "designation": "2009 SN",
    "nasa_jpl_url": "http://ssd.jpl.nasa.gov/sbdb.cgi?sstr=3467187",
    "absolute_magnitude_h": 21.7,
    "estimated_diameter": {
        "kilometers": {
            "estimated_diameter_min": 0.1214940408,
            "estimated_diameter_max": 0.2716689341
        },
        "meters": {
            "estimated_diameter_min": 121.4940407996,
            "estimated_diameter_max": 271.6689340891
        },
        "miles": {
            "estimated_diameter_min": 0.0754928736,
            "estimated_diameter_max": 0.1688071972
        },
        "feet": {
            "estimated_diameter_min": 398.6025088171,
            "estimated_diameter_max": 891.3023057169
        }
    },
    "is_potentially_hazardous_asteroid": true,
    "close_approach_data": [
        {
            "close_approach_date": "1917-08-15",
            "close_approach_date_full": "1917-Aug-15 20:18",
            "epoch_date_close_approach": -1652931720000,
            "relative_velocity": {
                "kilometers_per_second": "22.4990868583",
                "kilometers_per_hour": "80996.712689947",
                "miles_per_hour": "50328.2073933729"
            },
            "miss_distance": {
                "astronomical": "0.4215418057",
                "lunar": "163.9797624173",
                "kilometers": "63061756.248673859",
                "miles": "39184758.3115388942"
            },
            "orbiting_body": "Earth"
        },
        {
            "close_approach_date": "2009-09-10",
            "close_approach_date_full": "2009-Sep-10 05:27",
            "epoch_date_close_approach": 1252560420000,
            "relative_velocity": {
                "kilometers_per_second": "15.1339785697",
                "kilometers_per_hour": "54482.322850798",
                "miles_per_hour": "33853.1966624861"
            },
            "miss_distance": {
                "astronomical": "0.0456340788",
                "lunar": "17.7516566532",
                "kilometers": "6826760.987892156",
                "miles": "4241952.5759215128"
            },
            "orbiting_body": "Earth"
        },
        {
            "close_approach_date": "2010-04-12",
            "close_approach_date_full": "2010-Apr-12 09:03",
            "epoch_date_close_approach": 1271062980000,
            "relative_velocity": {
                "kilometers_per_second": "11.9670615291",
                "kilometers_per_hour": "43081.4215047593",
                "miles_per_hour": "26769.1199344433"
            },
            "miss_distance": {
                "astronomical": "0.0872926364",
                "lunar": "33.9568355596",
                "kilometers": "13058792.472124468",
                "miles": "8114357.3744269384"
            },
            "orbiting_body": "Mars"
        }
    ],
    "orbital_data": {
        "orbit_id": "10",
        "orbit_determination_date": "2017-04-06 09:00:02",
        "first_observation_date": "2009-09-17",
        "last_observation_date": "2009-09-21",
        "data_arc_in_days": 4,
        "observations_used": 26,
        "orbit_uncertainty": "9",
        "minimum_orbit_intersection": ".0119519",
        "jupiter_tisserand_invariant": "4.531",
        "epoch_osculation": "2455092.5",
        "eccentricity": ".3221191760917682",
        "semi_major_axis": "1.428396557202644",
        "inclination": "26.48185758558888",
        "ascending_node_longitude": "344.6608893255983",
        "orbital_period": "623.5504816337476",
        "perihelion_distance": ".9682826350642099",
        "perihelion_argument": "37.73899365841756",
        "aphelion_distance": "1.888510479341078",
        "perihelion_time": "2455117.213968772594",
        "mean_anomaly": "345.7316624392255",
        "mean_motion": ".5773389815316537",
        "equinox": "J2000",
        "orbit_class": {
            "orbit_class_type": "APO",
            "orbit_class_description": "Near-Earth asteroid orbits which cross the Earth’s orbit similar to that of 1862 Apollo",
            "orbit_class_range": "a (semi-major axis) > 1.0 AU; q (perihelion) < 1.017 AU"
        }
    },
    "is_sentry_object": false
}